{"fetched_at":"2026-07-12T07:15:18.323Z","source":"https://celestrak.org/NORAD/elements/gp.php?GROUP=kuiper&FORMAT=JSON","constellation":"kuiper","records":[{"OBJECT_NAME":"KUIPER-00408","OBJECT_ID":"2026-098F","EPOCH":"2026-07-11T15:26:23.216928","CLASSIFICATION_TYPE":"U","MEAN_MOTION":15.26337979,"ECCENTRICITY":0.00134205,"INCLINATION":51.8781,"RA_OF_ASC_NODE":312.8331,"ARG_OF_PERICENTER":246.0614,"MEAN_ANOMALY":113.8963,"EPHEMERIS_TYPE":0,"NORAD_CAT_ID":68924,"ELEMENT_SET_NO":999,"REV_AT_EPOCH":1106,"BSTAR":-0.0021763956,"MEAN_MOTION_DOT":-0.00057399,"MEAN_MOTION_DDOT":0},{"OBJECT_NAME":"KUIPER-00409","OBJECT_ID":"2026-098G","EPOCH":"2026-07-11T22:00:03.000096","CLASSIFICATION_TYPE":"U","MEAN_MOTION":15.07262606,"ECCENTRICITY":0.00060234,"INCLINATION":51.8891,"RA_OF_ASC_NODE":310.4703,"ARG_OF_PERICENTER":268.6058,"MEAN_ANOMALY":266.9052,"EPHEMERIS_TYPE":0,"NORAD_CAT_ID":68925,"ELEMENT_SET_NO":999,"REV_AT_EPOCH":294,"BSTAR":-0.0022981912,"MEAN_MOTION_DOT":-0.00035194,"MEAN_MOTION_DDOT":0},{"OBJECT_NAME":"KUIPER-00410","OBJECT_ID":"2026-098H","EPOCH":"2026-07-10T22:03:06.222528","CLASSIFICATION_TYPE":"U","MEAN_MOTION":15.26557489,"ECCENTRICITY":0.00130043,"INCLINATION":51.8752,"RA_OF_ASC_NODE":316.2179,"ARG_OF_PERICENTER":239.5534,"MEAN_ANOMALY":120.4164,"EPHEMERIS_TYPE":0,"NORAD_CAT_ID":68926,"ELEMENT_SET_NO":999,"REV_AT_EPOCH":1095,"BSTAR":0.00012256698,"MEAN_MOTION_DOT":0.00002906,"MEAN_MOTION_DDOT":0},{"OBJECT_NAME":"KUIPER-00412","OBJECT_ID":"2026-098J","EPOCH":"2026-07-11T15:07:12.826848","CLASSIFICATION_TYPE":"U","MEAN_MOTION":15.3752526,"ECCENTRICITY":0.00031961,"INCLINATION":51.8784,"RA_OF_ASC_NODE":309.1113,"ARG_OF_PERICENTER":332.8353,"MEAN_ANOMALY":27.2466,"EPHEMERIS_TYPE":0,"NORAD_CAT_ID":68927,"ELEMENT_SET_NO":999,"REV_AT_EPOCH":1111,"BSTAR":-0.00090207389,"MEAN_MOTION_DOT":-0.00033976,"MEAN_MOTION_DDOT":0},{"OBJECT_NAME":"KUIPER-00413","OBJECT_ID":"2026-098K","EPOCH":"2026-07-11T22:00:03.000096","CLASSIFICATION_TYPE":"U","MEAN_MOTION":15.07772631,"ECCENTRICITY":0.00229821,"INCLINATION":51.8864,"RA_OF_ASC_NODE":312.8625,"ARG_OF_PERICENTER":249.2435,"MEAN_ANOMALY":212.9268,"EPHEMERIS_TYPE":0,"NORAD_CAT_ID":68928,"ELEMENT_SET_NO":999,"REV_AT_EPOCH":577,"BSTAR":-0.0060290534,"MEAN_MOTION_DOT":-0.00092969,"MEAN_MOTION_DDOT":0},{"OBJECT_NAME":"KUIPER-00414","OBJECT_ID":"2026-098L","EPOCH":"2026-07-11T13:39:22.870080","CLASSIFICATION_TYPE":"U","MEAN_MOTION":14.79928341,"ECCENTRICITY":0.0001293,"INCLINATION":51.8973,"RA_OF_ASC_NODE":322.9427,"ARG_OF_PERICENTER":258.3488,"MEAN_ANOMALY":101.733,"EPHEMERIS_TYPE":0,"NORAD_CAT_ID":68929,"ELEMENT_SET_NO":999,"REV_AT_EPOCH":1091,"BSTAR":0.000091338254,"MEAN_MOTION_DOT":0.00000475,"MEAN_MOTION_DDOT":0},{"OBJECT_NAME":"KUIPER-00415","OBJECT_ID":"2026-098M","EPOCH":"2026-07-11T15:22:51.749472","CLASSIFICATION_TYPE":"U","MEAN_MOTION":15.30263064,"ECCENTRICITY":0.00085783,"INCLINATION":51.8791,"RA_OF_ASC_NODE":311.3754,"ARG_OF_PERICENTER":237.1626,"MEAN_ANOMALY":122.8532,"EPHEMERIS_TYPE":0,"NORAD_CAT_ID":68930,"ELEMENT_SET_NO":999,"REV_AT_EPOCH":1108,"BSTAR":0.000018564351,"MEAN_MOTION_DOT":0.00000187,"MEAN_MOTION_DDOT":0},{"OBJECT_NAME":"KUIPER-00416","OBJECT_ID":"2026-098N","EPOCH":"2026-07-11T14:55:44.973120","CLASSIFICATION_TYPE":"U","MEAN_MOTION":15.37583606,"ECCENTRICITY":0.00015579,"INCLINATION":51.8754,"RA_OF_ASC_NODE":309.0382,"ARG_OF_PERICENTER":315.8842,"MEAN_ANOMALY":44.2021,"EPHEMERIS_TYPE":0,"NORAD_CAT_ID":68931,"ELEMENT_SET_NO":999,"REV_AT_EPOCH":1111,"BSTAR":0.00030028216,"MEAN_MOTION_DOT":0.00010873,"MEAN_MOTION_DDOT":0},{"OBJECT_NAME":"KUIPER-00420","OBJECT_ID":"2026-098P","EPOCH":"2026-07-11T14:30:29.964672","CLASSIFICATION_TYPE":"U","MEAN_MOTION":15.36643688,"ECCENTRICITY":0.00034398,"INCLINATION":51.878,"RA_OF_ASC_NODE":309.6738,"ARG_OF_PERICENTER":296.3628,"MEAN_ANOMALY":63.7005,"EPHEMERIS_TYPE":0,"NORAD_CAT_ID":68932,"ELEMENT_SET_NO":999,"REV_AT_EPOCH":1110,"BSTAR":0.00033658086,"MEAN_MOTION_DOT":0.00011863,"MEAN_MOTION_DDOT":0},{"OBJECT_NAME":"KUIPER-00421","OBJECT_ID":"2026-098Q","EPOCH":"2026-07-11T13:09:45.976320","CLASSIFICATION_TYPE":"U","MEAN_MOTION":15.30057233,"ECCENTRICITY":0.00074822,"INCLINATION":51.8776,"RA_OF_ASC_NODE":311.5072,"ARG_OF_PERICENTER":216.8858,"MEAN_ANOMALY":143.1612,"EPHEMERIS_TYPE":0,"NORAD_CAT_ID":68933,"ELEMENT_SET_NO":999,"REV_AT_EPOCH":1107,"BSTAR":0.00030839746,"MEAN_MOTION_DOT":0.00008756,"MEAN_MOTION_DDOT":0},{"OBJECT_NAME":"KUIPER-00425","OBJECT_ID":"2026-098R","EPOCH":"2026-07-11T22:00:03.000096","CLASSIFICATION_TYPE":"U","MEAN_MOTION":15.19548516,"ECCENTRICITY":0.0014307,"INCLINATION":51.8809,"RA_OF_ASC_NODE":311.6708,"ARG_OF_PERICENTER":240.2065,"MEAN_ANOMALY":104.9852,"EPHEMERIS_TYPE":0,"NORAD_CAT_ID":68934,"ELEMENT_SET_NO":999,"REV_AT_EPOCH":577,"BSTAR":-0.062155704,"MEAN_MOTION_DOT":-0.01232881,"MEAN_MOTION_DDOT":0},{"OBJECT_NAME":"KUIPER-00430","OBJECT_ID":"2026-098S","EPOCH":"2026-07-11T22:00:03.000096","CLASSIFICATION_TYPE":"U","MEAN_MOTION":15.05428585,"ECCENTRICITY":0.00165412,"INCLINATION":51.8882,"RA_OF_ASC_NODE":312.4674,"ARG_OF_PERICENTER":245.0384,"MEAN_ANOMALY":125.8495,"EPHEMERIS_TYPE":0,"NORAD_CAT_ID":68935,"ELEMENT_SET_NO":999,"REV_AT_EPOCH":561,"BSTAR":-0.0026211938,"MEAN_MOTION_DOT":-0.00038263,"MEAN_MOTION_DDOT":0},{"OBJECT_NAME":"KUIPER-00431","OBJECT_ID":"2026-098T","EPOCH":"2026-07-11T22:00:03.000096","CLASSIFICATION_TYPE":"U","MEAN_MOTION":14.9094631,"ECCENTRICITY":0.00168786,"INCLINATION":51.8932,"RA_OF_ASC_NODE":314.0938,"ARG_OF_PERICENTER":230.9934,"MEAN_ANOMALY":352.896,"EPHEMERIS_TYPE":0,"NORAD_CAT_ID":68936,"ELEMENT_SET_NO":999,"REV_AT_EPOCH":386,"BSTAR":-0.0046060004,"MEAN_MOTION_DOT":-0.00046015,"MEAN_MOTION_DDOT":0},{"OBJECT_NAME":"KUIPER-00432","OBJECT_ID":"2026-098U","EPOCH":"2026-07-11T22:00:03.000096","CLASSIFICATION_TYPE":"U","MEAN_MOTION":15.27321069,"ECCENTRICITY":0.00108488,"INCLINATION":51.8747,"RA_OF_ASC_NODE":310.7345,"ARG_OF_PERICENTER":236.9708,"MEAN_ANOMALY":215.7707,"EPHEMERIS_TYPE":0,"NORAD_CAT_ID":68937,"ELEMENT_SET_NO":999,"REV_AT_EPOCH":571,"BSTAR":-0.000589387,"MEAN_MOTION_DOT":-0.00016343,"MEAN_MOTION_DDOT":0},{"OBJECT_NAME":"KUIPER-00434","OBJECT_ID":"2026-098V","EPOCH":"2026-07-11T22:00:03.000096","CLASSIFICATION_TYPE":"U","MEAN_MOTION":15.10381886,"ECCENTRICITY":0.00029492,"INCLINATION":51.8884,"RA_OF_ASC_NODE":310.3974,"ARG_OF_PERICENTER":202.0624,"MEAN_ANOMALY":98.102,"EPHEMERIS_TYPE":0,"NORAD_CAT_ID":68938,"ELEMENT_SET_NO":999,"REV_AT_EPOCH":576,"BSTAR":-0.073794232,"MEAN_MOTION_DOT":-0.01130662,"MEAN_MOTION_DDOT":0},{"OBJECT_NAME":"KUIPER-00436","OBJECT_ID":"2026-098W","EPOCH":"2026-07-11T22:00:03.000096","CLASSIFICATION_TYPE":"U","MEAN_MOTION":15.12664712,"ECCENTRICITY":0.00085784,"INCLINATION":51.8838,"RA_OF_ASC_NODE":310.775,"ARG_OF_PERICENTER":245.1883,"MEAN_ANOMALY":216.165,"EPHEMERIS_TYPE":0,"NORAD_CAT_ID":68939,"ELEMENT_SET_NO":999,"REV_AT_EPOCH":455,"BSTAR":-0.050502198,"MEAN_MOTION_DOT":-0.00834941,"MEAN_MOTION_DDOT":0}]}
