KUIPER-00408            
1 68924U 26098F   26192.64332427 -.00057399  00000+0 -21764-2 0  9991
2 68924  51.8781 312.8331 0013420 246.0614 113.8963 15.26337979 11066
KUIPER-00409            
1 68925U 26098G   26192.91670139 -.00035194  00000+0 -22982-2 0  9999
2 68925  51.8891 310.4703 0006023 268.6058 266.9052 15.07262606  2948
KUIPER-00410            
1 68926U 26098H   26191.91882202  .00002906  00000+0  12257-3 0  9993
2 68926  51.8752 316.2179 0013004 239.5534 120.4164 15.26557489 10954
KUIPER-00412            
1 68927U 26098J   26192.63000957 -.00033976  00000+0 -90207-3 0  9997
2 68927  51.8784 309.1113 0003196 332.8353  27.2466 15.37525260 11118
KUIPER-00413            
1 68928U 26098K   26192.91670139 -.00092969  00000+0 -60291-2 0  9990
2 68928  51.8864 312.8625 0022982 249.2435 212.9268 15.07772631  5774
KUIPER-00414            
1 68929U 26098L   26192.56901470  .00000475  00000+0  91338-4 0  9994
2 68929  51.8973 322.9427 0001293 258.3488 101.7330 14.79928341 10915
KUIPER-00415            
1 68930U 26098M   26192.64087673  .00000187  00000+0  18564-4 0  9995
2 68930  51.8791 311.3754 0008578 237.1626 122.8532 15.30263064 11081
KUIPER-00416            
1 68931U 26098N   26192.62204830  .00010873  00000+0  30028-3 0  9991
2 68931  51.8754 309.0382 0001557 315.8842  44.2021 15.37583606 11114
KUIPER-00420            
1 68932U 26098P   26192.60451348  .00011863  00000+0  33658-3 0  9990
2 68932  51.8780 309.6738 0003439 296.3628  63.7005 15.36643688 11104
KUIPER-00421            
1 68933U 26098Q   26192.54844880  .00008756  00000+0  30840-3 0  9998
2 68933  51.8776 311.5072 0007482 216.8858 143.1612 15.30057233 11079
KUIPER-00425            
1 68934U 26098R   26192.91670139 -.01232881  00000+0 -62156-1 0  9998
2 68934  51.8809 311.6708 0014307 240.2065 104.9852 15.19548516  5776
KUIPER-00430            
1 68935U 26098S   26192.91670139 -.00038263  00000+0 -26212-2 0  9990
2 68935  51.8882 312.4674 0016541 245.0384 125.8495 15.05428585  5614
KUIPER-00431            
1 68936U 26098T   26192.91670139 -.00046015  00000+0 -46060-2 0  9998
2 68936  51.8932 314.0938 0016878 230.9934 352.8960 14.90946310  3867
KUIPER-00432            
1 68937U 26098U   26192.91670139 -.00016343  00000+0 -58939-3 0  9999
2 68937  51.8747 310.7345 0010848 236.9708 215.7707 15.27321069  5714
KUIPER-00434            
1 68938U 26098V   26192.91670139 -.01130662  00000+0 -73794-1 0  9996
2 68938  51.8884 310.3974 0002949 202.0624  98.1020 15.10381886  5766
KUIPER-00436            
1 68939U 26098W   26192.91670139 -.00834941  00000+0 -50502-1 0  9999
2 68939  51.8838 310.7750 0008578 245.1883 216.1650 15.12664712  4552
